{
  "type": "FeatureCollection",
  "features": [
    {
      "type": "Feature",
      "properties": {
        "norad_id": 32141,
        "name": "FENGYUN 1C DEB",
        "group": "fengyun-1c-debris",
        "lat": 6.713566671052569,
        "lon": 172.98542111710384,
        "alt_km": 836.1108376161465,
        "timestamp": "2025-12-15T15:53:20.136540+00:00",
        "meta_object_name": "FENGYUN 1C DEB",
        "meta_object_id": "1999-025CSK",
        "meta_epoch": "2025-11-20T23:04:46.058016",
        "meta_mean_motion": 14.03501767,
        "meta_eccentricity": 0.00731678,
        "meta_inclination": 98.7436,
        "meta_ra_of_asc_node": 328.1999,
        "meta_arg_of_pericenter": 269.2169,
        "meta_mean_anomaly": 90.0615,
        "meta_ephemeris_type": 0,
        "meta_classification_type": "U",
        "meta_norad_cat_id": 32141,
        "meta_element_set_no": 999,
        "meta_rev_at_epoch": 94638,
        "meta_bstar": 0.00056632309,
        "meta_mean_motion_dot": 8.66e-06,
        "meta_mean_motion_ddot": 0,
        "tle_line1": "1 32141U 99025CSK 25324.96164419  .00000866  00000+0  56632-3 0  9996",
        "tle_line2": "2 32141  98.7436 328.1999 0073167 269.2169  90.0615 14.03501767946385"
      },
      "geometry": {
        "type": "Point",
        "coordinates": [
          172.98542111710384,
          6.713566671052569
        ]
      }
    },
    {
      "type": "Feature",
      "properties": {
        "norad_id": 32143,
        "name": "FENGYUN 1C DEB",
        "group": "fengyun-1c-debris",
        "lat": -69.5490311131682,
        "lon": -9.559713813619421,
        "alt_km": 914.0405074966247,
        "timestamp": "2025-12-15T15:53:20.136550+00:00",
        "meta_object_name": "FENGYUN 1C DEB",
        "meta_object_id": "1999-025CSM",
        "meta_epoch": "2025-12-14T04:39:57.282336",
        "meta_mean_motion": 14.17971614,
        "meta_eccentricity": 0.01045462,
        "meta_inclination": 98.5978,
        "meta_ra_of_asc_node": 325.0834,
        "meta_arg_of_pericenter": 104.5048,
        "meta_mean_anomaly": 256.7753,
        "meta_ephemeris_type": 0,
        "meta_classification_type": "U",
        "meta_norad_cat_id": 32143,
        "meta_element_set_no": 999,
        "meta_rev_at_epoch": 95954,
        "meta_bstar": 0.00022389127,
        "meta_mean_motion_dot": 4.42e-06,
        "meta_mean_motion_ddot": 0,
        "tle_line1": "1 32143U 99025CSM 25348.19441299  .00000442  00000+0  22389-3 0  9995",
        "tle_line2": "2 32143  98.5978 325.0834 0104546 104.5048 256.7753 14.17971614959546"
      },
      "geometry": {
        "type": "Point",
        "coordinates": [
          -9.559713813619421,
          -69.5490311131682
        ]
      }
    },
    {
      "type": "Feature",
      "properties": {
        "norad_id": 32150,
        "name": "FENGYUN 1C DEB",
        "group": "fengyun-1c-debris",
        "lat": -30.705650340688003,
        "lon": -172.6886792124177,
        "alt_km": 804.0248658905975,
        "timestamp": "2025-12-15T15:53:20.136559+00:00",
        "meta_object_name": "FENGYUN 1C DEB",
        "meta_object_id": "1999-025CSU",
        "meta_epoch": "2025-12-12T19:31:59.214720",
        "meta_mean_motion": 14.60669325,
        "meta_eccentricity": 0.017193,
        "meta_inclination": 99.1914,
        "meta_ra_of_asc_node": 9.67,
        "meta_arg_of_pericenter": 67.4732,
        "meta_mean_anomaly": 294.4563,
        "meta_ephemeris_type": 0,
        "meta_classification_type": "U",
        "meta_norad_cat_id": 32150,
        "meta_element_set_no": 999,
        "meta_rev_at_epoch": 97707,
        "meta_bstar": 0.00022068603,
        "meta_mean_motion_dot": 1.257e-05,
        "meta_mean_motion_ddot": 0,
        "tle_line1": "1 32150U 99025CSU 25346.81387980  .00001257  00000+0  22069-3 0  9996",
        "tle_line2": "2 32150  99.1914   9.6700 0171930  67.4732 294.4563 14.60669325977073"
      },
      "geometry": {
        "type": "Point",
        "coordinates": [
          -172.6886792124177,
          -30.705650340688003
        ]
      }
    },
    {
      "type": "Feature",
      "properties": {
        "norad_id": 32152,
        "name": "FENGYUN 1C DEB",
        "group": "fengyun-1c-debris",
        "lat": -1.394977633755628,
        "lon": 151.1669789783263,
        "alt_km": 744.4294083509094,
        "timestamp": "2025-12-15T15:53:20.136568+00:00",
        "meta_object_name": "FENGYUN 1C DEB",
        "meta_object_id": "1999-025CSW",
        "meta_epoch": "2025-12-13T04:33:07.876800",
        "meta_mean_motion": 14.56753621,
        "meta_eccentricity": 0.00550486,
        "meta_inclination": 98.7606,
        "meta_ra_of_asc_node": 148.3543,
        "meta_arg_of_pericenter": 199.8134,
        "meta_mean_anomaly": 160.0925,
        "meta_ephemeris_type": 0,
        "meta_classification_type": "U",
        "meta_norad_cat_id": 32152,
        "meta_element_set_no": 999,
        "meta_rev_at_epoch": 62619,
        "meta_bstar": 0.0034882492,
        "meta_mean_motion_dot": 0.00015905,
        "meta_mean_motion_ddot": 0,
        "tle_line1": "1 32152U 99025CSW 25347.18967450  .00015905  00000+0  34882-2 0  9995",
        "tle_line2": "2 32152  98.7606 148.3543 0055048 199.8134 160.0925 14.56753621626193"
      },
      "geometry": {
        "type": "Point",
        "coordinates": [
          151.1669789783263,
          -1.394977633755628
        ]
      }
    },
    {
      "type": "Feature",
      "properties": {
        "norad_id": 32153,
        "name": "FENGYUN 1C DEB",
        "group": "fengyun-1c-debris",
        "lat": -63.63977694578687,
        "lon": -5.441437764753979,
        "alt_km": 611.9242395038955,
        "timestamp": "2025-12-15T15:53:20.136577+00:00",
        "meta_object_name": "FENGYUN 1C DEB",
        "meta_object_id": "1999-025CSX",
        "meta_epoch": "2025-12-14T07:15:59.779008",
        "meta_mean_motion": 14.48726079,
        "meta_eccentricity": 0.02072716,
        "meta_inclination": 98.7695,
        "meta_ra_of_asc_node": 191.2964,
        "meta_arg_of_pericenter": 216.5154,
        "meta_mean_anomaly": 142.1755,
        "meta_ephemeris_type": 0,
        "meta_classification_type": "U",
        "meta_norad_cat_id": 32153,
        "meta_element_set_no": 999,
        "meta_rev_at_epoch": 97246,
        "meta_bstar": 0.00040155107,
        "meta_mean_motion_dot": 1.929e-05,
        "meta_mean_motion_ddot": 0,
        "tle_line1": "1 32153U 99025CSX 25348.30277522  .00001929  00000+0  40155-3 0  9997",
        "tle_line2": "2 32153  98.7695 191.2964 0207271 216.5154 142.1755 14.48726079972466"
      },
      "geometry": {
        "type": "Point",
        "coordinates": [
          -5.441437764753979,
          -63.63977694578687
        ]
      }
    },
    {
      "type": "Feature",
      "properties": {
        "norad_id": 32155,
        "name": "FENGYUN 1C DEB",
        "group": "fengyun-1c-debris",
        "lat": 58.02620055591917,
        "lon": -95.25109506271208,
        "alt_km": 825.1636640680672,
        "timestamp": "2025-12-15T15:53:20.136587+00:00",
        "meta_object_name": "FENGYUN 1C DEB",
        "meta_object_id": "1999-025CSZ",
        "meta_epoch": "2025-12-14T12:47:50.436096",
        "meta_mean_motion": 14.32956999,
        "meta_eccentricity": 0.00690143,
        "meta_inclination": 98.952,
        "meta_ra_of_asc_node": 278.2092,
        "meta_arg_of_pericenter": 234.5934,
        "meta_mean_anomaly": 124.879,
        "meta_ephemeris_type": 0,
        "meta_classification_type": "U",
        "meta_norad_cat_id": 32155,
        "meta_element_set_no": 999,
        "meta_rev_at_epoch": 70248,
        "meta_bstar": 0.00052873215,
        "meta_mean_motion_dot": 1.437e-05,
        "meta_mean_motion_ddot": 0,
        "tle_line1": "1 32155U 99025CSZ 25348.53322264  .00001437  00000+0  52873-3 0  9992",
        "tle_line2": "2 32155  98.9520 278.2092 0069014 234.5934 124.8790 14.32956999702480"
      },
      "geometry": {
        "type": "Point",
        "coordinates": [
          -95.25109506271208,
          58.02620055591917
        ]
      }
    },
    {
      "type": "Feature",
      "properties": {
        "norad_id": 32156,
        "name": "FENGYUN 1C DEB",
        "group": "fengyun-1c-debris",
        "lat": 55.424397248458185,
        "lon": 145.62394767491062,
        "alt_km": 721.4447950200638,
        "timestamp": "2025-12-15T15:53:20.136596+00:00",
        "meta_object_name": "FENGYUN 1C DEB",
        "meta_object_id": "1999-025CTA",
        "meta_epoch": "2025-12-14T17:49:44.956416",
        "meta_mean_motion": 14.31954825,
        "meta_eccentricity": 0.00822399,
        "meta_inclination": 99.3543,
        "meta_ra_of_asc_node": 158.4708,
        "meta_arg_of_pericenter": 51.7421,
        "meta_mean_anomaly": 309.1124,
        "meta_ephemeris_type": 0,
        "meta_classification_type": "U",
        "meta_norad_cat_id": 32156,
        "meta_element_set_no": 999,
        "meta_rev_at_epoch": 64849,
        "meta_bstar": 0.00034958523,
        "meta_mean_motion_dot": 9.23e-06,
        "meta_mean_motion_ddot": 0,
        "tle_line1": "1 32156U 99025CTA 25348.74288144  .00000923  00000+0  34959-3 0  9998",
        "tle_line2": "2 32156  99.3543 158.4708 0082239  51.7421 309.1124 14.31954825648492"
      },
      "geometry": {
        "type": "Point",
        "coordinates": [
          145.62394767491062,
          55.424397248458185
        ]
      }
    }
  ]
}